ONEWEB-0674             
1 55833U 23029AP  24190.60011228  .00000018  00000+0  13215-4 0  9990
2 55833  87.8951  70.7001 0002399  82.9642 277.1761 13.14500898 66320
ONEWEB-0675             
1 55834U 23029AQ  24190.47185546  .00000003  00000+0 -23613-4 0  9999
2 55834  87.9150  86.0063 0001522  72.2196 287.9103 13.19727861 65441
ONEWEB-0720             
1 55835U 23029AR  24190.61557850  .00000055  00000+0  10501-3 0  9994
2 55835  87.9149  85.9783 0002192  64.2636 295.8722 13.19728152 65383
ONEWEB-0537             
1 56046U 23043A   24190.52294088 -.00000262  00000+0 -71995-3 0  9992
2 56046  87.9099   9.8463 0001517  95.6976 264.4328 13.16594022 65712
ONEWEB-0538             
1 56047U 23043B   24190.51660576 -.00000014  00000+0 -71403-4 0  9991
2 56047  87.9100   9.8672 0001630  82.8846 277.2471 13.16596303 65724
ONEWEB-0546             
1 56048U 23043C   24190.50394254  .00000068  00000+0  14522-3 0  9993
2 56048  87.9102   9.8340 0001503 118.6909 241.4373 13.16596251 65711
ONEWEB-0547             
1 56049U 23043D   24190.57964857 -.00000200  00000+0 -51579-3 0  9996
2 56049  87.9276  25.0422 0001663  80.7071 279.4251 13.21825110 64610
ONEWEB-0548             
1 56050U 23043E   24190.52927111 -.00000053  00000+0 -17351-3 0  9991
2 56050  87.9100   9.8721 0002409  94.0904 266.0503 13.16592499 65711
